{
  "type": "FeatureCollection",
  "features": [
    {
      "type": "Feature",
      "properties": {
        "norad_id": 66568,
        "name": "STARLINK-35803",
        "group": "last-30-days",
        "lat": -37.906220292612716,
        "lon": 51.52886220136731,
        "alt_km": 348.26327432590097,
        "timestamp": "2025-12-03T15:48:01.920234+00:00",
        "meta_object_name": "STARLINK-35803",
        "meta_object_id": "2025-268M",
        "meta_epoch": "2025-12-03T06:00:02.999808",
        "meta_mean_motion": 15.75369331,
        "meta_eccentricity": 0.00012444,
        "meta_inclination": 42.9989,
        "meta_ra_of_asc_node": 177.3233,
        "meta_arg_of_pericenter": 271.4377,
        "meta_mean_anomaly": 174.9131,
        "meta_ephemeris_type": 0,
        "meta_classification_type": "U",
        "meta_norad_cat_id": 66568,
        "meta_element_set_no": 999,
        "meta_rev_at_epoch": 314,
        "meta_bstar": -0.0067398198,
        "meta_mean_motion_dot": -0.00940408,
        "meta_mean_motion_ddot": 0,
        "tle_line1": "1 66568U 25268M   25337.25003472 -.00940408  00000+0 -67398-2 0  9998",
        "tle_line2": "2 66568  42.9989 177.3233 0001244 271.4377 174.9131 15.75369331  3149"
      },
      "geometry": {
        "type": "Point",
        "coordinates": [
          51.52886220136731,
          -37.906220292612716
        ]
      }
    },
    {
      "type": "Feature",
      "properties": {
        "norad_id": 66569,
        "name": "STARLINK-35835",
        "group": "last-30-days",
        "lat": -38.601703417341334,
        "lon": 53.79670238405741,
        "alt_km": 348.0479445571227,
        "timestamp": "2025-12-03T15:48:01.920244+00:00",
        "meta_object_name": "STARLINK-35835",
        "meta_object_id": "2025-268N",
        "meta_epoch": "2025-12-03T06:00:02.999808",
        "meta_mean_motion": 15.75373978,
        "meta_eccentricity": 0.00015296,
        "meta_inclination": 42.999,
        "meta_ra_of_asc_node": 177.3186,
        "meta_arg_of_pericenter": 263.0628,
        "meta_mean_anomaly": 185.2042,
        "meta_ephemeris_type": 0,
        "meta_classification_type": "U",
        "meta_norad_cat_id": 66569,
        "meta_element_set_no": 999,
        "meta_rev_at_epoch": 314,
        "meta_bstar": -0.0068127114,
        "meta_mean_motion_dot": -0.00949791,
        "meta_mean_motion_ddot": 0,
        "tle_line1": "1 66569U 25268N   25337.25003472 -.00949791  00000+0 -68127-2 0  9994",
        "tle_line2": "2 66569  42.9990 177.3186 0001529 263.0628 185.2042 15.75373978  3149"
      },
      "geometry": {
        "type": "Point",
        "coordinates": [
          53.79670238405741,
          -38.601703417341334
        ]
      }
    },
    {
      "type": "Feature",
      "properties": {
        "norad_id": 66570,
        "name": "STARLINK-35834",
        "group": "last-30-days",
        "lat": -39.24936978898185,
        "lon": 56.097015267986066,
        "alt_km": 348.0113339872305,
        "timestamp": "2025-12-03T15:48:01.920254+00:00",
        "meta_object_name": "STARLINK-35834",
        "meta_object_id": "2025-268P",
        "meta_epoch": "2025-12-03T06:00:02.999808",
        "meta_mean_motion": 15.75373255,
        "meta_eccentricity": 0.00019669,
        "meta_inclination": 42.9989,
        "meta_ra_of_asc_node": 177.3139,
        "meta_arg_of_pericenter": 280.7845,
        "meta_mean_anomaly": 169.4051,
        "meta_ephemeris_type": 0,
        "meta_classification_type": "U",
        "meta_norad_cat_id": 66570,
        "meta_element_set_no": 999,
        "meta_rev_at_epoch": 314,
        "meta_bstar": -0.0068558734,
        "meta_mean_motion_dot": -0.00955318,
        "meta_mean_motion_ddot": 0,
        "tle_line1": "1 66570U 25268P   25337.25003472 -.00955318  00000+0 -68559-2 0  9997",
        "tle_line2": "2 66570  42.9989 177.3139 0001966 280.7845 169.4051 15.75373255  3141"
      },
      "geometry": {
        "type": "Point",
        "coordinates": [
          56.097015267986066,
          -39.24936978898185
        ]
      }
    },
    {
      "type": "Feature",
      "properties": {
        "norad_id": 66571,
        "name": "STARLINK-35836",
        "group": "last-30-days",
        "lat": -39.8556405482438,
        "lon": 58.457432602671474,
        "alt_km": 348.2903531766342,
        "timestamp": "2025-12-03T15:48:01.920263+00:00",
        "meta_object_name": "STARLINK-35836",
        "meta_object_id": "2025-268Q",
        "meta_epoch": "2025-12-03T06:00:02.999808",
        "meta_mean_motion": 15.75386343,
        "meta_eccentricity": 0.00013381,
        "meta_inclination": 42.9991,
        "meta_ra_of_asc_node": 177.3092,
        "meta_arg_of_pericenter": 275.6915,
        "meta_mean_anomaly": 176.4007,
        "meta_ephemeris_type": 0,
        "meta_classification_type": "U",
        "meta_norad_cat_id": 66571,
        "meta_element_set_no": 999,
        "meta_rev_at_epoch": 314,
        "meta_bstar": -0.0068909119,
        "meta_mean_motion_dot": -0.0095993,
        "meta_mean_motion_ddot": 0,
        "tle_line1": "1 66571U 25268Q   25337.25003472 -.00959930  00000+0 -68909-2 0  9991",
        "tle_line2": "2 66571  42.9991 177.3092 0001338 275.6915 176.4007 15.75386343  3148"
      },
      "geometry": {
        "type": "Point",
        "coordinates": [
          58.457432602671474,
          -39.8556405482438
        ]
      }
    },
    {
      "type": "Feature",
      "properties": {
        "norad_id": 66572,
        "name": "STARLINK-35870",
        "group": "last-30-days",
        "lat": -40.405543543560455,
        "lon": 60.82584134380472,
        "alt_km": 347.4091109894607,
        "timestamp": "2025-12-03T15:48:01.920273+00:00",
        "meta_object_name": "STARLINK-35870",
        "meta_object_id": "2025-268R",
        "meta_epoch": "2025-12-03T06:00:02.999808",
        "meta_mean_motion": 15.7538762,
        "meta_eccentricity": 0.00024605,
        "meta_inclination": 42.9991,
        "meta_ra_of_asc_node": 177.3054,
        "meta_arg_of_pericenter": 268.3791,
        "meta_mean_anomaly": 185.5812,
        "meta_ephemeris_type": 0,
        "meta_classification_type": "U",
        "meta_norad_cat_id": 66572,
        "meta_element_set_no": 999,
        "meta_rev_at_epoch": 314,
        "meta_bstar": -0.0065637336,
        "meta_mean_motion_dot": -0.00919462,
        "meta_mean_motion_ddot": 0,
        "tle_line1": "1 66572U 25268R   25337.25003472 -.00919462  00000+0 -65637-2 0  9993",
        "tle_line2": "2 66572  42.9991 177.3054 0002460 268.3791 185.5812 15.75387620  3149"
      },
      "geometry": {
        "type": "Point",
        "coordinates": [
          60.82584134380472,
          -40.405543543560455
        ]
      }
    },
    {
      "type": "Feature",
      "properties": {
        "norad_id": 66573,
        "name": "STARLINK-35650",
        "group": "last-30-days",
        "lat": -40.91380181479966,
        "lon": 63.26859800624517,
        "alt_km": 347.4693846541586,
        "timestamp": "2025-12-03T15:48:01.920282+00:00",
        "meta_object_name": "STARLINK-35650",
        "meta_object_id": "2025-268S",
        "meta_epoch": "2025-12-03T06:00:02.999808",
        "meta_mean_motion": 15.75372341,
        "meta_eccentricity": 0.00024438,
        "meta_inclination": 42.9991,
        "meta_ra_of_asc_node": 177.2996,
        "meta_arg_of_pericenter": 265.6008,
        "meta_mean_anomaly": 190.3157,
        "meta_ephemeris_type": 0,
        "meta_classification_type": "U",
        "meta_norad_cat_id": 66573,
        "meta_element_set_no": 999,
        "meta_rev_at_epoch": 314,
        "meta_bstar": -0.0066514884,
        "meta_mean_motion_dot": -0.00929924,
        "meta_mean_motion_ddot": 0,
        "tle_line1": "1 66573U 25268S   25337.25003472 -.00929924  00000+0 -66515-2 0  9994",
        "tle_line2": "2 66573  42.9991 177.2996 0002443 265.6008 190.3157 15.75372341  3146"
      },
      "geometry": {
        "type": "Point",
        "coordinates": [
          63.26859800624517,
          -40.91380181479966
        ]
      }
    },
    {
      "type": "Feature",
      "properties": {
        "norad_id": 66574,
        "name": "STARLINK-35812",
        "group": "last-30-days",
        "lat": -41.368584825160866,
        "lon": 65.74344692381173,
        "alt_km": 348.18600374912694,
        "timestamp": "2025-12-03T15:48:01.920291+00:00",
        "meta_object_name": "STARLINK-35812",
        "meta_object_id": "2025-268T",
        "meta_epoch": "2025-12-03T06:00:02.999808",
        "meta_mean_motion": 15.75383492,
        "meta_eccentricity": 0.00014535,
        "meta_inclination": 42.9989,
        "meta_ra_of_asc_node": 177.2942,
        "meta_arg_of_pericenter": 268.5554,
        "meta_mean_anomaly": 189.2865,
        "meta_ephemeris_type": 0,
        "meta_classification_type": "U",
        "meta_norad_cat_id": 66574,
        "meta_element_set_no": 999,
        "meta_rev_at_epoch": 314,
        "meta_bstar": -0.0068583105,
        "meta_mean_motion_dot": -0.00955806,
        "meta_mean_motion_ddot": 0,
        "tle_line1": "1 66574U 25268T   25337.25003472 -.00955806  00000+0 -68583-2 0  9990",
        "tle_line2": "2 66574  42.9989 177.2942 0001453 268.5554 189.2865 15.75383492  3145"
      },
      "geometry": {
        "type": "Point",
        "coordinates": [
          65.74344692381173,
          -41.368584825160866
        ]
      }
    }
  ]
}